{"fetched_at":"2026-03-30T13:17:50Z","count":15418,"tles":[{"name":"STARLINK-6274","line1":"1 56776U 23078K   26087.88068748  .00000545  00000+0  53439-4 0  9994","line2":"2 56776  69.9983 276.2482 0002815 270.4562  89.6274 14.98332489156043","category":"Starlink"}]}